ONEWEB-0210             
1 48787U 21045W   25015.42983317 -.00000028  00000+0 -10901-3 0  9991
2 48787  87.9075   2.2639 0001024  99.1399 260.9847 13.15547763177374
ONEWEB-0214             
1 48788U 21045X   25014.90693789 -.00000074  00000+0 -23009-3 0  9999
2 48788  87.9073   2.3566 0001195  84.8169 275.3098 13.15547006176140
ONEWEB-0221             
1 48789U 21045Y   25014.91327830 -.00000073  00000+0 -22875-3 0  9991
2 48789  87.9077   2.3791 0001752  94.0914 266.0417 13.15547219176233
ONEWEB-0213             
1 48790U 21045Z   25014.97824594 -.00000051  00000+0 -16989-3 0  9993
2 48790  87.9075   2.3764 0001533  93.7263 266.4042 13.15548404177431
ONEWEB-0212             
1 48791U 21045AA  25014.95527643  .00000157  00000+0  38304-3 0  9997
2 48791  87.9077   2.3678 0001811  87.2025 272.9313 13.15548347176293
ONEWEB-0227             
1 48792U 21045AB  25014.87841154  .00000103  00000+0  24013-3 0  9998
2 48792  87.9075   2.3966 0001741  91.8590 268.2739 13.15546890176237
ONEWEB-0226             
1 48793U 21045AC  25014.94813078  .00000180  00000+0  44400-3 0  9998
2 48793  87.9075   2.3877 0001357  93.9637 266.1648 13.15547082176215
ONEWEB-0224             
1 48794U 21045AD  25014.98774140 -.00000129  00000+0 -37765-3 0  9990
2 48794  87.9078   2.4094 0002488 107.4365 252.7037 13.15547002177267
